{"fetched_at":"2026-07-14T06:34:27.310Z","source":"https://celestrak.org/NORAD/elements/gp.php?GROUP=spire&FORMAT=JSON","constellation":"spire","records":[{"OBJECT_NAME":"LEMUR-2-HUBBLE-4","OBJECT_ID":"2025-135AP","EPOCH":"2026-07-13T20:50:27.752064","CLASSIFICATION_TYPE":"U","MEAN_MOTION":14.93683552,"ECCENTRICITY":0.0002566,"INCLINATION":97.7718,"RA_OF_ASC_NODE":308.4649,"ARG_OF_PERICENTER":165.5181,"MEAN_ANOMALY":194.6112,"EPHEMERIS_TYPE":0,"NORAD_CAT_ID":64565,"ELEMENT_SET_NO":999,"REV_AT_EPOCH":5785,"BSTAR":0.00010517,"MEAN_MOTION_DOT":0.00001055,"MEAN_MOTION_DDOT":0},{"OBJECT_NAME":"LEMUR-2-SEJONG-2","OBJECT_ID":"2025-135BL","EPOCH":"2026-07-13T20:16:06.239424","CLASSIFICATION_TYPE":"U","MEAN_MOTION":14.96905403,"ECCENTRICITY":0.0003877,"INCLINATION":97.7706,"RA_OF_ASC_NODE":309.6887,"ARG_OF_PERICENTER":225.217,"MEAN_ANOMALY":134.8736,"EPHEMERIS_TYPE":0,"NORAD_CAT_ID":64586,"ELEMENT_SET_NO":999,"REV_AT_EPOCH":5793,"BSTAR":0.00018865,"MEAN_MOTION_DOT":0.00002107,"MEAN_MOTION_DDOT":0},{"OBJECT_NAME":"LEMUR-2-HUBBLE-5","OBJECT_ID":"2025-135BT","EPOCH":"2026-07-13T06:35:58.564032","CLASSIFICATION_TYPE":"U","MEAN_MOTION":14.942105,"ECCENTRICITY":0.0004223,"INCLINATION":97.7739,"RA_OF_ASC_NODE":308.5451,"ARG_OF_PERICENTER":243.2055,"MEAN_ANOMALY":116.8733,"EPHEMERIS_TYPE":0,"NORAD_CAT_ID":64840,"ELEMENT_SET_NO":999,"REV_AT_EPOCH":5780,"BSTAR":0.00010103,"MEAN_MOTION_DOT":0.00001025,"MEAN_MOTION_DDOT":0},{"OBJECT_NAME":"LEMUR-2-KARENDARRELL","OBJECT_ID":"2025-135BU","EPOCH":"2026-07-13T20:42:20.142432","CLASSIFICATION_TYPE":"U","MEAN_MOTION":15.00488219,"ECCENTRICITY":0.0012325,"INCLINATION":97.7713,"RA_OF_ASC_NODE":311.0352,"ARG_OF_PERICENTER":108.8027,"MEAN_ANOMALY":251.4535,"EPHEMERIS_TYPE":0,"NORAD_CAT_ID":64841,"ELEMENT_SET_NO":999,"REV_AT_EPOCH":5801,"BSTAR":0.00035249,"MEAN_MOTION_DOT":0.00004386,"MEAN_MOTION_DDOT":0},{"OBJECT_NAME":"LEMUR-2-LUCILLE-ROSE","OBJECT_ID":"2025-135BV","EPOCH":"2026-07-13T13:39:58.444416","CLASSIFICATION_TYPE":"U","MEAN_MOTION":15.00477141,"ECCENTRICITY":0.0014681,"INCLINATION":97.7706,"RA_OF_ASC_NODE":310.7769,"ARG_OF_PERICENTER":193.9631,"MEAN_ANOMALY":166.1189,"EPHEMERIS_TYPE":0,"NORAD_CAT_ID":65403,"ELEMENT_SET_NO":999,"REV_AT_EPOCH":5259,"BSTAR":0.00028939,"MEAN_MOTION_DOT":0.00003591,"MEAN_MOTION_DDOT":0},{"OBJECT_NAME":"LEMUR-2-AFFIE-WAUWIE","OBJECT_ID":"2025-248C","EPOCH":"2026-07-13T09:47:59.059680","CLASSIFICATION_TYPE":"U","MEAN_MOTION":15.28200773,"ECCENTRICITY":0.0008714,"INCLINATION":45.3884,"RA_OF_ASC_NODE":332.8093,"ARG_OF_PERICENTER":240.1921,"MEAN_ANOMALY":119.8103,"EPHEMERIS_TYPE":0,"NORAD_CAT_ID":66295,"ELEMENT_SET_NO":999,"REV_AT_EPOCH":3860,"BSTAR":0.00046625316,"MEAN_MOTION_DOT":0.00012783,"MEAN_MOTION_DDOT":0},{"OBJECT_NAME":"OTTER SDM","OBJECT_ID":"2025-276N","EPOCH":"2026-07-13T04:31:08.425344","CLASSIFICATION_TYPE":"U","MEAN_MOTION":15.20042584,"ECCENTRICITY":0.0004241,"INCLINATION":97.4209,"RA_OF_ASC_NODE":267.2358,"ARG_OF_PERICENTER":263.4653,"MEAN_ANOMALY":96.61,"EPHEMERIS_TYPE":0,"NORAD_CAT_ID":66678,"ELEMENT_SET_NO":999,"REV_AT_EPOCH":3436,"BSTAR":0.00016462,"MEAN_MOTION_DOT":0.00003482,"MEAN_MOTION_DDOT":0},{"OBJECT_NAME":"LEMUR-2-STAS-GORBUK","OBJECT_ID":"2025-276W","EPOCH":"2026-07-13T17:39:48.209760","CLASSIFICATION_TYPE":"U","MEAN_MOTION":15.19649762,"ECCENTRICITY":0.0003482,"INCLINATION":97.4242,"RA_OF_ASC_NODE":267.8265,"ARG_OF_PERICENTER":255.8012,"MEAN_ANOMALY":104.2836,"EPHEMERIS_TYPE":0,"NORAD_CAT_ID":66686,"ELEMENT_SET_NO":999,"REV_AT_EPOCH":3444,"BSTAR":0.00015184,"MEAN_MOTION_DOT":0.00003169,"MEAN_MOTION_DDOT":0},{"OBJECT_NAME":"LEMUR-2-TEODOR","OBJECT_ID":"2025-276DG","EPOCH":"2026-07-13T18:09:09.552384","CLASSIFICATION_TYPE":"U","MEAN_MOTION":15.21327647,"ECCENTRICITY":0.0002275,"INCLINATION":97.4148,"RA_OF_ASC_NODE":268.1165,"ARG_OF_PERICENTER":88.654,"MEAN_ANOMALY":271.4956,"EPHEMERIS_TYPE":0,"NORAD_CAT_ID":66768,"ELEMENT_SET_NO":999,"REV_AT_EPOCH":3448,"BSTAR":0.00015498,"MEAN_MOTION_DOT":0.000034,"MEAN_MOTION_DDOT":0},{"OBJECT_NAME":"LEMUR-2-LAILA","OBJECT_ID":"2025-276DQ","EPOCH":"2026-07-13T17:25:58.785312","CLASSIFICATION_TYPE":"U","MEAN_MOTION":15.21553753,"ECCENTRICITY":0.0002896,"INCLINATION":97.417,"RA_OF_ASC_NODE":268.2249,"ARG_OF_PERICENTER":96.3598,"MEAN_ANOMALY":263.7967,"EPHEMERIS_TYPE":0,"NORAD_CAT_ID":66776,"ELEMENT_SET_NO":999,"REV_AT_EPOCH":3448,"BSTAR":0.00014347,"MEAN_MOTION_DOT":0.00003164,"MEAN_MOTION_DDOT":0},{"OBJECT_NAME":"LEMUR-2-CELIJO-SB-PK","OBJECT_ID":"2025-276DW","EPOCH":"2026-07-13T17:13:17.935680","CLASSIFICATION_TYPE":"U","MEAN_MOTION":15.00275969,"ECCENTRICITY":0.0007033,"INCLINATION":97.5201,"RA_OF_ASC_NODE":264.6196,"ARG_OF_PERICENTER":68.0362,"MEAN_ANOMALY":292.1608,"EPHEMERIS_TYPE":0,"NORAD_CAT_ID":66781,"ELEMENT_SET_NO":999,"REV_AT_EPOCH":2660,"BSTAR":0.00023899,"MEAN_MOTION_DOT":0.00002937,"MEAN_MOTION_DDOT":0},{"OBJECT_NAME":"LEMUR-2-FINNIAN","OBJECT_ID":"2025-276DX","EPOCH":"2026-07-13T18:07:00.247008","CLASSIFICATION_TYPE":"U","MEAN_MOTION":15.00606139,"ECCENTRICITY":0.0008117,"INCLINATION":97.5311,"RA_OF_ASC_NODE":264.9238,"ARG_OF_PERICENTER":7.7708,"MEAN_ANOMALY":352.3641,"EPHEMERIS_TYPE":0,"NORAD_CAT_ID":66782,"ELEMENT_SET_NO":999,"REV_AT_EPOCH":2398,"BSTAR":0.0001323,"MEAN_MOTION_DOT":0.00001614,"MEAN_MOTION_DDOT":0},{"OBJECT_NAME":"LEMUR-2-STARLIGHT","OBJECT_ID":"2025-276DY","EPOCH":"2026-07-13T17:37:19.091136","CLASSIFICATION_TYPE":"U","MEAN_MOTION":14.99343047,"ECCENTRICITY":0.0014807,"INCLINATION":97.5236,"RA_OF_ASC_NODE":264.4653,"ARG_OF_PERICENTER":51.643,"MEAN_ANOMALY":308.6122,"EPHEMERIS_TYPE":0,"NORAD_CAT_ID":66783,"ELEMENT_SET_NO":999,"REV_AT_EPOCH":3417,"BSTAR":0.00030805,"MEAN_MOTION_DOT":0.00003717,"MEAN_MOTION_DDOT":0},{"OBJECT_NAME":"LEMUR-2-TARTIFLETTE","OBJECT_ID":"2025-276DZ","EPOCH":"2026-07-13T17:34:59.606976","CLASSIFICATION_TYPE":"U","MEAN_MOTION":14.99329199,"ECCENTRICITY":0.0013909,"INCLINATION":97.5236,"RA_OF_ASC_NODE":264.4718,"ARG_OF_PERICENTER":59.8123,"MEAN_ANOMALY":300.4476,"EPHEMERIS_TYPE":0,"NORAD_CAT_ID":66784,"ELEMENT_SET_NO":999,"REV_AT_EPOCH":3417,"BSTAR":0.00028391,"MEAN_MOTION_DOT":0.00003419,"MEAN_MOTION_DDOT":0},{"OBJECT_NAME":"LEMUR-2-VUKASIN","OBJECT_ID":"2025-276EA","EPOCH":"2026-07-13T16:54:00.116928","CLASSIFICATION_TYPE":"U","MEAN_MOTION":15.00538582,"ECCENTRICITY":0.0003326,"INCLINATION":97.5236,"RA_OF_ASC_NODE":264.8005,"ARG_OF_PERICENTER":58.7508,"MEAN_ANOMALY":301.4041,"EPHEMERIS_TYPE":0,"NORAD_CAT_ID":66785,"ELEMENT_SET_NO":999,"REV_AT_EPOCH":3412,"BSTAR":0.00021936,"MEAN_MOTION_DOT":0.00002709,"MEAN_MOTION_DDOT":0},{"OBJECT_NAME":"LEMUR-2-HOTSPUR-TOM","OBJECT_ID":"2025-276EB","EPOCH":"2026-07-13T17:26:47.702400","CLASSIFICATION_TYPE":"U","MEAN_MOTION":14.99232058,"ECCENTRICITY":0.0013858,"INCLINATION":97.5224,"RA_OF_ASC_NODE":264.4408,"ARG_OF_PERICENTER":51.0077,"MEAN_ANOMALY":309.2378,"EPHEMERIS_TYPE":0,"NORAD_CAT_ID":66786,"ELEMENT_SET_NO":999,"REV_AT_EPOCH":3410,"BSTAR":0.0002533,"MEAN_MOTION_DOT":0.00003036,"MEAN_MOTION_DDOT":0}]}
